NORAD_CAT_ID,OBJECT_NAME,OBJECT_TYPE,EPOCH,MEAN_MOTION,ECCENTRICITY,INCLINATION,RA_OF_ASC_NODE,ARG_OF_PERICENTER,MEAN_ANOMALY,BSTAR,MEAN_MOTION_DOT,MEAN_MOTION_DDOT,TLE_LINE0,TLE_LINE1,TLE_LINE2,SEMIMAJOR_AXIS,PERIOD,APOGEE,PERIGEE,DECAYED
53907.0,STARLINK-5063,PAYLOAD,2023-02-26 13:43:49,15.08837237,9.47e-05,53.216,253.7247,95.1846,264.9254,3.7131e-05,3.03e-06,0.0,0 STARLINK-5063,1 53907U 22119X   23057.57209519  .00000303  00000-0  37131-4 0  9999,2 53907  53.2160 253.7247 0000947  95.1846 264.9254 15.08837237 24558,6917.889,95.438,540.409,539.099,0.0
53907.0,STARLINK-5063,PAYLOAD,2023-02-26 20:05:21,15.08842794,0.0001001,53.2159,252.5358,96.0368,264.0739,8.0254e-05,9.9e-06,0.0,0 STARLINK-5063,1 53907U 22119X   23057.83705025  .00000990  00000-0  80254-4 0  9997,2 53907  53.2159 252.5358 0001001  96.0368 264.0739 15.08842794 24594,6917.872,95.437,540.429,539.044,0.0
53907.0,STARLINK-5063,PAYLOAD,2023-02-26 21:40:44,15.08843947,9.98e-05,53.2161,252.238,94.5835,265.5271,8.9544e-05,1.138e-05,0.0,0 STARLINK-5063,1 53907U 22119X   23057.90328904  .00001138  00000-0  89544-4 0  9998,2 53907  53.2161 252.2380 0000998  94.5835 265.5271 15.08843947 24188,6917.868,95.437,540.424,539.043,0.0
53907.0,STARLINK-5063,PAYLOAD,2023-02-27 05:37:40,15.08836836,9.91e-05,53.2167,250.7509,85.7606,274.3499,6.5484e-05,7.54e-06,0.0,0 STARLINK-5063,1 53907U 22119X   23058.23449446  .00000754  00000-0  65484-4 0  9990,2 53907  53.2167 250.7509 0000991  85.7606 274.3499 15.08836836 24236,6917.89,95.438,540.441,539.069,0.0
53907.0,STARLINK-5063,PAYLOAD,2023-02-27 13:34:36,15.08835165,0.0001055,53.217,249.264,82.9438,277.1674,-1.2102e-05,-4.8e-06,0.0,0 STARLINK-5063,1 53907U 22119X   23058.56569947 -.00000480  00000-0 -12102-4 0  9992,2 53907  53.2170 249.2640 0001055  82.9438 277.1674 15.08835165 24705,6917.895,95.438,540.49,539.03,0.0
53907.0,STARLINK-5063,PAYLOAD,2023-02-28 11:50:00,15.0883322,0.0001342,53.2175,245.1041,93.7687,266.3459,-8.0671e-05,-1.571e-05,0.0,0 STARLINK-5063,1 53907U 22119X   23059.49306498 -.00001571  00000-0 -80671-4 0  9993,2 53907  53.2175 245.1041 0001342  93.7687 266.3459 15.08833220 24425,6917.901,95.438,540.694,538.838,0.0
53907.0,STARLINK-5063,PAYLOAD,2023-02-28 19:46:56,15.0882849,0.000104,53.2167,243.6156,88.68,271.4312,-0.00013236,-2.393e-05,0.0,0 STARLINK-5063,1 53907U 22119X   23059.82427078 -.00002393  00000-0 -13236-3 0  9993,2 53907  53.2167 243.6156 0001040  88.6800 271.4312 15.08828490 24890,6917.916,95.438,540.5,539.061,0.0
53907.0,STARLINK-5063,PAYLOAD,2023-03-01 05:19:15,15.08838213,0.0001079,53.2167,241.831,88.8344,271.2772,-6.2778e-05,-1.287e-05,0.0,0 STARLINK-5063,1 53907U 22119X   23060.22170414 -.00001287  00000-0 -62778-4 0  9995,2 53907  53.2167 241.8310 0001079  88.8344 271.2772 15.08838213 24532,6917.886,95.438,540.497,539.004,0.0
53907.0,STARLINK-5063,PAYLOAD,2023-03-01 21:13:05,15.08846685,0.000119,53.2165,238.8575,92.1099,268.0029,3.618e-05,2.88e-06,0.0,0 STARLINK-5063,1 53907U 22119X   23060.88409543  .00000288  00000-0  36180-4 0  9991,2 53907  53.2165 238.8575 0001190  92.1099 268.0029 15.08846685 25057,6917.86,95.437,540.548,538.902,0.0
53907.0,STARLINK-5063,PAYLOAD,2023-03-02 17:53:07,15.08834184,0.0001397,53.2149,234.9899,89.5407,270.5745,0.00012372,1.681e-05,0.0,0 STARLINK-5063,1 53907U 22119X   23061.74522151  .00001681  00000-0  12372-3 0  9992,2 53907  53.2149 234.9899 0001397  89.5407 270.5745 15.08834184 24768,6917.898,95.438,540.73,538.797,0.0
53907.0,STARLINK-5063,PAYLOAD,2023-03-03 05:00:49,15.088382,0.0001016,53.2165,232.911,69.1923,290.9178,4.6288e-05,4.49e-06,0.0,0 STARLINK-5063,1 53907U 22119X   23062.20890221  .00000449  00000-0  46288-4 0  9995,2 53907  53.2165 232.9110 0001016  69.1923 290.9178 15.08838200 25259,6917.886,95.438,540.454,539.048,0.0
53907.0,STARLINK-5063,PAYLOAD,2023-03-03 19:19:16,15.08853435,0.0001062,53.2178,230.2347,52.9885,307.1204,7.5747e-06,-1.67e-06,0.0,0 STARLINK-5063,1 53907U 22119X   23062.80505213 -.00000167  00000-0  75747-5 0  9996,2 53907  53.2178 230.2347 0001062  52.9885 307.1204 15.08853435 25342,6917.839,95.437,540.439,538.97,0.0
53907.0,STARLINK-5063,PAYLOAD,2023-03-03 22:30:02,15.08853649,9.31e-05,53.2188,229.639,53.2907,306.8171,3.9424e-06,-2.25e-06,0.0,0 STARLINK-5063,1 53907U 22119X   23062.93752973 -.00000225  00000-0  39424-5 0  9994,2 53907  53.2188 229.6390 0000931  53.2907 306.8171 15.08853649 24947,6917.839,95.437,540.348,539.06,0.0
53907.0,STARLINK-5063,PAYLOAD,2023-03-04 11:13:09,15.08833875,0.0001074,53.2173,227.2609,63.8266,296.2837,-0.00010693,-1.989e-05,0.0,0 STARLINK-5063,1 53907U 22119X   23063.46746712 -.00001989  00000-0 -10693-3 0  9991,2 53907  53.2173 227.2609 0001074  63.8266 296.2837 15.08833875 25022,6917.899,95.438,540.507,539.021,0.0
53907.0,STARLINK-5063,PAYLOAD,2023-03-04 12:48:32,15.08834315,9.66e-05,53.2173,226.9629,72.5081,287.6017,-0.00010258,-1.92e-05,0.0,0 STARLINK-5063,1 53907U 22119X   23063.53370638 -.00001920  00000-0 -10258-3 0  9991,2 53907  53.2173 226.9629 0000966  72.5081 287.6017 15.08834315 25452,6917.898,95.438,540.431,539.094,0.0
53907.0,STARLINK-5063,PAYLOAD,2023-03-04 17:34:41,15.08841734,0.0001168,53.2169,226.071,79.6239,280.4884,-3.3254e-05,-8.17e-06,0.0,0 STARLINK-5063,1 53907U 22119X   23063.73241930 -.00000817  00000-0 -33254-4 0  9991,2 53907  53.2169 226.0710 0001168  79.6239 280.4884 15.08841734 25060,6917.875,95.437,540.548,538.932,0.0
53907.0,STARLINK-5063,PAYLOAD,2023-03-04 20:45:26,15.08846866,0.0001164,53.2175,225.4755,80.1782,279.9341,1.3108e-06,-2.67e-06,0.0,0 STARLINK-5063,1 53907U 22119X   23063.86489445 -.00000267  00000-0  13108-5 0  9995,2 53907  53.2175 225.4755 0001164  80.1782 279.9341 15.08846866 25506,6917.859,95.437,540.53,538.919,0.0
53907.0,STARLINK-5063,PAYLOAD,2023-03-05 17:25:27,15.08845028,0.00012,53.2167,221.6106,85.789,274.3239,-1.791e-05,-5.73e-06,0.0,0 STARLINK-5063,1 53907U 22119X   23064.72601784 -.00000573  00000-0 -17910-4 0  9998,2 53907  53.2167 221.6106 0001200  85.7890 274.3239 15.08845028 25219,6917.865,95.437,540.56,538.9,0.0
53907.0,STARLINK-5063,PAYLOAD,2023-03-06 10:54:43,15.08829738,0.0001462,53.2168,218.3389,99.2194,260.8964,4.1764e-05,3.77e-06,0.0,0 STARLINK-5063,1 53907U 22119X   23065.45466548  .00000377  00000-0  41764-4 0  9990,2 53907  53.2168 218.3389 0001462  99.2194 260.8964 15.08829738 25320,6917.912,95.438,540.788,538.765,0.0
53907.0,STARLINK-5063,PAYLOAD,2023-03-06 18:51:37,15.08846343,0.0001214,53.2173,216.8509,83.5971,276.516,7.736e-05,9.44e-06,0.0,0 STARLINK-5063,1 53907U 22119X   23065.78585434  .00000944  00000-0  77360-4 0  9993,2 53907  53.2173 216.8509 0001214  83.5971 276.5160 15.08846343 25375,6917.861,95.437,540.566,538.886,0.0
53907.0,STARLINK-5063,PAYLOAD,2023-03-07 02:48:34,15.08834728,0.0001435,53.2161,215.3645,84.3359,275.7797,-8.6068e-05,-1.657e-05,0.0,0 STARLINK-5063,1 53907U 22119X   23066.11706773 -.00001657  00000-0 -86068-4 0  9991,2 53907  53.2161 215.3645 0001435  84.3359 275.7797 15.08834728 25428,6917.897,95.438,540.754,538.769,0.0
53907.0,STARLINK-5063,PAYLOAD,2023-03-07 18:42:25,15.08843394,0.0001345,53.2169,212.3901,82.0114,278.1031,8.1852e-06,-1.58e-06,0.0,0 STARLINK-5063,1 53907U 22119X   23066.77946195 -.00000158  00000-0  81852-5 0  9998,2 53907  53.2169 212.3901 0001345  82.0114 278.1031 15.08843394 25520,6917.87,95.437,540.665,538.805,0.0
53907.0,STARLINK-5063,PAYLOAD,2023-03-08 02:39:22,15.08830966,0.0001894,53.2211,210.906,94.4725,265.6483,-3.7268e-05,-8.81e-06,0.0,0 STARLINK-5063,1 53907U 22119X   23067.11067315 -.00000881  00000-0 -37268-4 0  9990,2 53907  53.2211 210.9060 0001894  94.4725 265.6483 15.08830966 25570,6917.908,95.438,541.083,538.463,0.0
53907.0,STARLINK-5063,PAYLOAD,2023-03-08 09:00:54,15.08827613,0.0001592,53.2163,209.7156,91.4184,268.6991,2.2095e-06,-2.53e-06,0.0,0 STARLINK-5063,1 53907U 22119X   23067.37563374 -.00000253  00000-0  22095-5 0  9999,2 53907  53.2163 209.7156 0001592  91.4184 268.6991 15.08827613 26033,6917.918,95.438,540.885,538.682,0.0
53907.0,STARLINK-5063,PAYLOAD,2023-03-09 02:30:08,15.08838909,9.97e-05,53.2158,206.4432,88.2344,271.8762,9.0796e-05,1.158e-05,0.0,0 STARLINK-5063,1 53907U 22119X   23068.10426391  .00001158  00000-0  90796-4 0  9994,2 53907  53.2158 206.4432 0000997  88.2344 271.8762 15.08838909 25725,6917.884,95.438,540.438,539.059,0.0
53907.0,STARLINK-5063,PAYLOAD,2023-03-09 18:23:57,15.08859783,0.0001435,53.2126,203.469,105.7066,254.4084,0.00026779,3.979e-05,0.0,0 STARLINK-5063,1 53907U 22119X   23068.76664282  .00003979  00000-0  26779-3 0  9991,2 53907  53.2126 203.4690 0001435 105.7066 254.4084 15.08859783 25825,6917.82,95.436,540.678,538.692,0.0
53907.0,STARLINK-5063,PAYLOAD,2023-03-10 18:14:47,15.08838758,0.0001264,53.216,199.0095,103.5857,256.5276,-4.5646e-05,-1.014e-05,0.0,0 STARLINK-5063,1 53907U 22119X   23069.76026747 -.00001014  00000-0 -45646-4 0  9995,2 53907  53.2160 199.0095 0001264 103.5857 256.5276 15.08838758 25977,6917.884,95.438,540.624,538.875,0.0
53907.0,STARLINK-5063,PAYLOAD,2023-03-11 02:11:43,15.08829728,0.000171,53.2142,197.5217,98.7813,261.3373,-0.00012715,-2.311e-05,0.0,0 STARLINK-5063,1 53907U 22119X   23070.09147822 -.00002311  00000-0 -12715-3 0  9992,2 53907  53.2142 197.5217 0001710  98.7813 261.3373 15.08829728 26025,6917.912,95.438,540.96,538.594,0.0
53907.0,STARLINK-5063,PAYLOAD,2023-03-11 08:33:16,15.08831512,0.0001229,53.2168,196.3336,90.2645,269.8488,-0.00010948,-2.029e-05,0.0,0 STARLINK-5063,1 53907U 22119X   23070.35643613 -.00002029  00000-0 -10948-3 0  9992,2 53907  53.2168 196.3336 0001229  90.2645 269.8488 15.08831512 26481,6917.906,95.438,540.622,538.921,0.0
53907.0,STARLINK-5063,PAYLOAD,2023-03-11 18:05:33,15.08855483,0.000141,53.2174,194.5465,109.3152,250.7993,-0.00011035,-2.045e-05,0.0,0 STARLINK-5063,1 53907U 22119X   23070.75385946 -.00002045  00000-0 -11035-3 0  9994,2 53907  53.2174 194.5465 0001410 109.3152 250.7993 15.08855483 26122,6917.833,95.437,540.673,538.723,0.0
